STARLINK-35490          
1 66204U 25243AD  25311.66904865  .03267007  00000+0  15031-1 0  9995
2 66204  53.1528  96.2027 0015344 199.2029 160.8416 15.79230170  1911
GRAVITY-1 R/B           
1 66205U 25226E   25312.49345929  .00044711  28909-5  39361-3 0  9999
2 66205  97.7921  29.1856 0159854 296.2438  62.2459 15.54194947  2158
STARLINK-35748          
1 66206U 25244A   25312.48906109  .00041548  00000+0  21751-3 0  9997
2 66206  53.1547  79.2590 0003519 345.9271  14.1653 15.80411865  3011
STARLINK-35747          
1 66207U 25244B   25312.23577388 -.00394453  00000+0 -20812-2 0  9998
2 66207  53.1546  80.5235 0002324 348.0399  12.0568 15.80929697  2973
STARLINK-35751          
1 66208U 25244C   25312.42508525 -.00471196  00000+0 -25741-2 0  9993
2 66208  53.1539  79.5705 0000846  49.3993 310.7102 15.80382172  3002
STARLINK-35750          
1 66209U 25244D   25312.23456230 -.00411539  00000+0 -21820-2 0  9997
2 66209  53.1545  80.5156 0003325 339.2095  20.8792 15.80860480  2973
STARLINK-35740          
1 66210U 25244E   25312.48793171  .00111037  00000+0  57124-3 0  9999
2 66210  53.1541  79.2506 0005362   6.0828 354.0259 15.80380438  3017
STARLINK-35723          
1 66211U 25244F   25312.23421153 -.00400272  00000+0 -21178-2 0  9994
2 66211  53.1548  80.5123 0002866 337.4213  22.6683 15.80880830  2974
STARLINK-35710          
1 66212U 25244G   25312.48641432  .00070581  00000+0  36689-3 0  9994
2 66212  53.1545  79.2407 0005554   2.3433 357.7614 15.80332469  3013
STARLINK-34204          
1 66213U 25244H   25312.48677580  .00090777  00000+0  46976-3 0  9997
2 66213  53.1545  79.2435 0005200   3.8673 356.2388 15.80334424  3010
STARLINK-35714          
1 66214U 25244J   25312.48480613  .00018918  00000+0  10214-3 0  9990
2 66214  53.1543  79.2292 0005467   8.1646 351.9465 15.80212227  3017
STARLINK-35712          
1 66215U 25244K   25312.48406662 -.00616999  00000+0 -34943-2 0  9992
2 66215  53.1544  79.2243 0000505  27.7092 332.3957 15.79972581  3018
