CCSDS_OMM_VERS = 2.0
CREATION_DATE  = 
ORIGINATOR     = 

OBJECT_NAME    = STARLINK-35490
OBJECT_ID      = 2025-243AD
CENTER_NAME    = EARTH
REF_FRAME      = TEME
TIME_SYSTEM    = UTC
MEAN_ELEMENT_THEORY = SGP/SGP4

EPOCH          = 2025-11-07T16:03:25.803360
MEAN_MOTION    = 15.79230170
ECCENTRICITY   = .00153444
INCLINATION    = 53.1528
RA_OF_ASC_NODE = 96.2027
ARG_OF_PERICENTER = 199.2029
MEAN_ANOMALY   = 160.8416

EPHEMERIS_TYPE = 0
CLASSIFICATION_TYPE = U
NORAD_CAT_ID   = 66204
ELEMENT_SET_NO = 999
REV_AT_EPOCH   = 191
BSTAR          = .15030524E-1
MEAN_MOTION_DOT = .3267007E-1
MEAN_MOTION_DDOT = 0

CCSDS_OMM_VERS = 2.0
CREATION_DATE  = 
ORIGINATOR     = 

OBJECT_NAME    = GRAVITY-1 R/B
OBJECT_ID      = 2025-226E
CENTER_NAME    = EARTH
REF_FRAME      = TEME
TIME_SYSTEM    = UTC
MEAN_ELEMENT_THEORY = SGP/SGP4

EPOCH          = 2025-11-08T11:50:34.882656
MEAN_MOTION    = 15.54194947
ECCENTRICITY   = .0159854
INCLINATION    = 97.7921
RA_OF_ASC_NODE = 29.1856
ARG_OF_PERICENTER = 296.2438
MEAN_ANOMALY   = 62.2459

EPHEMERIS_TYPE = 0
CLASSIFICATION_TYPE = U
NORAD_CAT_ID   = 66205
ELEMENT_SET_NO = 999
REV_AT_EPOCH   = 215
BSTAR          = .39361E-3
MEAN_MOTION_DOT = .44711E-3
MEAN_MOTION_DDOT = .28909E-5

CCSDS_OMM_VERS = 2.0
CREATION_DATE  = 
ORIGINATOR     = 

OBJECT_NAME    = STARLINK-35748
OBJECT_ID      = 2025-244A
CENTER_NAME    = EARTH
REF_FRAME      = TEME
TIME_SYSTEM    = UTC
MEAN_ELEMENT_THEORY = SGP/SGP4

EPOCH          = 2025-11-08T11:44:14.878176
MEAN_MOTION    = 15.80411865
ECCENTRICITY   = .0003519
INCLINATION    = 53.1547
RA_OF_ASC_NODE = 79.2590
ARG_OF_PERICENTER = 345.9271
MEAN_ANOMALY   = 14.1653

EPHEMERIS_TYPE = 0
CLASSIFICATION_TYPE = U
NORAD_CAT_ID   = 66206
ELEMENT_SET_NO = 999
REV_AT_EPOCH   = 301
BSTAR          = .21751E-3
MEAN_MOTION_DOT = .41548E-3
MEAN_MOTION_DDOT = 0

CCSDS_OMM_VERS = 2.0
CREATION_DATE  = 
ORIGINATOR     = 

OBJECT_NAME    = STARLINK-35747
OBJECT_ID      = 2025-244B
CENTER_NAME    = EARTH
REF_FRAME      = TEME
TIME_SYSTEM    = UTC
MEAN_ELEMENT_THEORY = SGP/SGP4

EPOCH          = 2025-11-08T05:39:30.863232
MEAN_MOTION    = 15.80929697
ECCENTRICITY   = .00023245
INCLINATION    = 53.1546
RA_OF_ASC_NODE = 80.5235
ARG_OF_PERICENTER = 348.0399
MEAN_ANOMALY   = 12.0568

EPHEMERIS_TYPE = 0
CLASSIFICATION_TYPE = U
NORAD_CAT_ID   = 66207
ELEMENT_SET_NO = 999
REV_AT_EPOCH   = 297
BSTAR          = -.20812384E-2
MEAN_MOTION_DOT = -.394453E-2
MEAN_MOTION_DDOT = 0

CCSDS_OMM_VERS = 2.0
CREATION_DATE  = 
ORIGINATOR     = 

OBJECT_NAME    = STARLINK-35751
OBJECT_ID      = 2025-244C
CENTER_NAME    = EARTH
REF_FRAME      = TEME
TIME_SYSTEM    = UTC
MEAN_ELEMENT_THEORY = SGP/SGP4

EPOCH          = 2025-11-08T10:12:07.365600
MEAN_MOTION    = 15.80382172
ECCENTRICITY   = .0000846
INCLINATION    = 53.1539
RA_OF_ASC_NODE = 79.5705
ARG_OF_PERICENTER = 49.3993
MEAN_ANOMALY   = 310.7102

EPHEMERIS_TYPE = 0
CLASSIFICATION_TYPE = U
NORAD_CAT_ID   = 66208
ELEMENT_SET_NO = 999
REV_AT_EPOCH   = 300
BSTAR          = -.25741E-2
MEAN_MOTION_DOT = -.471196E-2
MEAN_MOTION_DDOT = 0

CCSDS_OMM_VERS = 2.0
CREATION_DATE  = 
ORIGINATOR     = 

OBJECT_NAME    = STARLINK-35750
OBJECT_ID      = 2025-244D
CENTER_NAME    = EARTH
REF_FRAME      = TEME
TIME_SYSTEM    = UTC
MEAN_ELEMENT_THEORY = SGP/SGP4

EPOCH          = 2025-11-08T05:37:46.182720
MEAN_MOTION    = 15.80860480
ECCENTRICITY   = .00033255
INCLINATION    = 53.1545
RA_OF_ASC_NODE = 80.5156
ARG_OF_PERICENTER = 339.2095
MEAN_ANOMALY   = 20.8792

EPHEMERIS_TYPE = 0
CLASSIFICATION_TYPE = U
NORAD_CAT_ID   = 66209
ELEMENT_SET_NO = 999
REV_AT_EPOCH   = 297
BSTAR          = -.2181963E-2
MEAN_MOTION_DOT = -.411539E-2
MEAN_MOTION_DDOT = 0

CCSDS_OMM_VERS = 2.0
CREATION_DATE  = 
ORIGINATOR     = 

OBJECT_NAME    = STARLINK-35740
OBJECT_ID      = 2025-244E
CENTER_NAME    = EARTH
REF_FRAME      = TEME
TIME_SYSTEM    = UTC
MEAN_ELEMENT_THEORY = SGP/SGP4

EPOCH          = 2025-11-08T11:42:37.299744
MEAN_MOTION    = 15.80380438
ECCENTRICITY   = .0005362
INCLINATION    = 53.1541
RA_OF_ASC_NODE = 79.2506
ARG_OF_PERICENTER = 6.0828
MEAN_ANOMALY   = 354.0259

EPHEMERIS_TYPE = 0
CLASSIFICATION_TYPE = U
NORAD_CAT_ID   = 66210
ELEMENT_SET_NO = 999
REV_AT_EPOCH   = 301
BSTAR          = .57124E-3
MEAN_MOTION_DOT = .111037E-2
MEAN_MOTION_DDOT = 0

CCSDS_OMM_VERS = 2.0
CREATION_DATE  = 
ORIGINATOR     = 

OBJECT_NAME    = STARLINK-35723
OBJECT_ID      = 2025-244F
CENTER_NAME    = EARTH
REF_FRAME      = TEME
TIME_SYSTEM    = UTC
MEAN_ELEMENT_THEORY = SGP/SGP4

EPOCH          = 2025-11-08T05:37:15.876192
MEAN_MOTION    = 15.80880830
ECCENTRICITY   = .00028661
INCLINATION    = 53.1548
RA_OF_ASC_NODE = 80.5123
ARG_OF_PERICENTER = 337.4213
MEAN_ANOMALY   = 22.6683

EPHEMERIS_TYPE = 0
CLASSIFICATION_TYPE = U
NORAD_CAT_ID   = 66211
ELEMENT_SET_NO = 999
REV_AT_EPOCH   = 297
BSTAR          = -.21177883E-2
MEAN_MOTION_DOT = -.400272E-2
MEAN_MOTION_DDOT = 0

CCSDS_OMM_VERS = 2.0
CREATION_DATE  = 
ORIGINATOR     = 

OBJECT_NAME    = STARLINK-35710
OBJECT_ID      = 2025-244G
CENTER_NAME    = EARTH
REF_FRAME      = TEME
TIME_SYSTEM    = UTC
MEAN_ELEMENT_THEORY = SGP/SGP4

EPOCH          = 2025-11-08T11:40:26.197248
MEAN_MOTION    = 15.80332469
ECCENTRICITY   = .0005554
INCLINATION    = 53.1545
RA_OF_ASC_NODE = 79.2407
ARG_OF_PERICENTER = 2.3433
MEAN_ANOMALY   = 357.7614

EPHEMERIS_TYPE = 0
CLASSIFICATION_TYPE = U
NORAD_CAT_ID   = 66212
ELEMENT_SET_NO = 999
REV_AT_EPOCH   = 301
BSTAR          = .36689E-3
MEAN_MOTION_DOT = .70581E-3
MEAN_MOTION_DDOT = 0

CCSDS_OMM_VERS = 2.0
CREATION_DATE  = 
ORIGINATOR     = 

OBJECT_NAME    = STARLINK-34204
OBJECT_ID      = 2025-244H
CENTER_NAME    = EARTH
REF_FRAME      = TEME
TIME_SYSTEM    = UTC
MEAN_ELEMENT_THEORY = SGP/SGP4

EPOCH          = 2025-11-08T11:40:57.429120
MEAN_MOTION    = 15.80334424
ECCENTRICITY   = .00052
INCLINATION    = 53.1545
RA_OF_ASC_NODE = 79.2435
ARG_OF_PERICENTER = 3.8673
MEAN_ANOMALY   = 356.2388

EPHEMERIS_TYPE = 0
CLASSIFICATION_TYPE = U
NORAD_CAT_ID   = 66213
ELEMENT_SET_NO = 999
REV_AT_EPOCH   = 301
BSTAR          = .46976E-3
MEAN_MOTION_DOT = .90777E-3
MEAN_MOTION_DDOT = 0

CCSDS_OMM_VERS = 2.0
CREATION_DATE  = 
ORIGINATOR     = 

OBJECT_NAME    = STARLINK-35714
OBJECT_ID      = 2025-244J
CENTER_NAME    = EARTH
REF_FRAME      = TEME
TIME_SYSTEM    = UTC
MEAN_ELEMENT_THEORY = SGP/SGP4

EPOCH          = 2025-11-08T11:38:07.249632
MEAN_MOTION    = 15.80212227
ECCENTRICITY   = .0005467
INCLINATION    = 53.1543
RA_OF_ASC_NODE = 79.2292
ARG_OF_PERICENTER = 8.1646
MEAN_ANOMALY   = 351.9465

EPHEMERIS_TYPE = 0
CLASSIFICATION_TYPE = U
NORAD_CAT_ID   = 66214
ELEMENT_SET_NO = 999
REV_AT_EPOCH   = 301
BSTAR          = .10214E-3
MEAN_MOTION_DOT = .18918E-3
MEAN_MOTION_DDOT = 0

CCSDS_OMM_VERS = 2.0
CREATION_DATE  = 
ORIGINATOR     = 

OBJECT_NAME    = STARLINK-35712
OBJECT_ID      = 2025-244K
CENTER_NAME    = EARTH
REF_FRAME      = TEME
TIME_SYSTEM    = UTC
MEAN_ELEMENT_THEORY = SGP/SGP4

EPOCH          = 2025-11-08T11:37:03.355968
MEAN_MOTION    = 15.79972581
ECCENTRICITY   = .0000505
INCLINATION    = 53.1544
RA_OF_ASC_NODE = 79.2243
ARG_OF_PERICENTER = 27.7092
MEAN_ANOMALY   = 332.3957

EPHEMERIS_TYPE = 0
CLASSIFICATION_TYPE = U
NORAD_CAT_ID   = 66215
ELEMENT_SET_NO = 999
REV_AT_EPOCH   = 301
BSTAR          = -.34943E-2
MEAN_MOTION_DOT = -.616999E-2
MEAN_MOTION_DDOT = 0

